NORAD_CAT_ID,OBJECT_NAME,OBJECT_TYPE,EPOCH,MEAN_MOTION,ECCENTRICITY,INCLINATION,RA_OF_ASC_NODE,ARG_OF_PERICENTER,MEAN_ANOMALY,BSTAR,MEAN_MOTION_DOT,MEAN_MOTION_DDOT,TLE_LINE0,TLE_LINE1,TLE_LINE2,SEMIMAJOR_AXIS,PERIOD,APOGEE,PERIGEE,DECAYED
52657.0,STARLINK-4084,PAYLOAD,2023-04-13 15:57:46,15.08843787,5.1e-05,53.2205,237.2465,81.5981,278.5069,0.00031639,4.752e-05,0.0,0 STARLINK-4084,1 52657U 22053B   23103.66511806  .00004752  00000-0  31639-3 0  9992,2 52657  53.2205 237.2465 0000510  81.5981 278.5069 15.08843787 51230,6917.869,95.437,540.087,539.381,0.0
52657.0,STARLINK-4084,PAYLOAD,2023-04-14 01:30:00,15.08931451,6.95e-05,53.2178,235.4619,155.0296,205.073,0.0019559,0.00031056,0.0,0 STARLINK-4084,1 52657U 22053B   23104.06250536  .00031056  00000-0  19559-2 0  9990,2 52657  53.2178 235.4619 0000695 155.0296 205.0730 15.08931451 51292,6917.601,95.432,539.947,538.985,0.0
52657.0,STARLINK-4084,PAYLOAD,2023-04-14 09:27:02,15.08806398,0.0001589,53.2176,233.9751,96.2092,263.9082,-4.9925e-05,-1.082e-05,0.0,0 STARLINK-4084,1 52657U 22053B   23104.39377367 -.00001082  00000-0 -49925-4 0  9998,2 52657  53.2176 233.9751 0001589  96.2092 263.9082 15.08806398 51343,6917.983,95.44,540.947,538.749,0.0
52657.0,STARLINK-4084,PAYLOAD,2023-04-15 12:28:33,15.08843199,0.0001322,53.216,228.9181,104.3982,255.7156,0.00010754,1.424e-05,0.0,0 STARLINK-4084,1 52657U 22053B   23105.51983647  .00001424  00000-0  10754-3 0  9992,2 52657  53.2160 228.9181 0001322 104.3982 255.7156 15.08843199 51511,6917.871,95.437,540.65,538.821,0.0
52657.0,STARLINK-4084,PAYLOAD,2023-04-15 17:14:42,15.08852883,9.93e-05,53.2153,228.025,84.835,275.2756,0.00016652,2.364e-05,0.0,0 STARLINK-4084,1 52657U 22053B   23105.71855114  .00002364  00000-0  16652-3 0  9998,2 52657  53.2153 228.0250 0000993  84.8350 275.2756 15.08852883 51541,6917.841,95.437,540.393,539.019,0.0
52657.0,STARLINK-4084,PAYLOAD,2023-04-16 01:11:39,15.08839053,0.0001612,53.2146,226.5368,97.5413,262.5762,0.00012732,1.739e-05,0.0,0 STARLINK-4084,1 52657U 22053B   23106.04975908  .00001739  00000-0  12732-3 0  9999,2 52657  53.2146 226.5368 0001612  97.5413 262.5762 15.08839053 51591,6917.883,95.438,540.863,538.633,0.0
52657.0,STARLINK-4084,PAYLOAD,2023-04-16 13:54:44,15.08842811,0.0001401,53.2159,224.1626,93.6135,266.5017,0.00013187,1.812e-05,0.0,0 STARLINK-4084,1 52657U 22053B   23106.57967858  .00001812  00000-0  13187-3 0  9999,2 52657  53.2159 224.1626 0001401  93.6135 266.5017 15.08842811 51672,6917.872,95.437,540.706,538.768,0.0
52657.0,STARLINK-4084,PAYLOAD,2023-04-16 17:05:29,15.08853866,0.0001317,53.2159,223.5647,108.2543,251.8592,0.00026582,3.947e-05,0.0,0 STARLINK-4084,1 52657U 22053B   23106.71215112  .00003947  00000-0  26582-3 0  9998,2 52657  53.2159 223.5647 0001317 108.2543 251.8592 15.08853866 51699,6917.838,95.437,540.614,538.792,0.0
52657.0,STARLINK-4084,PAYLOAD,2023-04-17 13:45:31,15.08840748,0.0001477,53.2161,219.6993,85.1489,274.9672,2.9259e-05,1.78e-06,0.0,0 STARLINK-4084,1 52657U 22053B   23107.57328168  .00000178  00000-0  29259-4 0  9997,2 52657  53.2161 219.6993 0001477  85.1489 274.9672 15.08840748 51826,6917.878,95.438,540.765,538.721,0.0
52657.0,STARLINK-4084,PAYLOAD,2023-04-17 16:56:17,15.08844603,0.0001482,53.2156,219.1043,87.721,272.3951,0.00017482,2.496e-05,0.0,0 STARLINK-4084,1 52657U 22053B   23107.70575937  .00002496  00000-0  17482-3 0  9999,2 52657  53.2156 219.1043 0001482  87.7210 272.3951 15.08844603 51845,6917.866,95.437,540.757,538.706,0.0
52657.0,STARLINK-4084,PAYLOAD,2023-04-18 10:25:32,15.08836333,0.0001499,53.2147,215.8348,92.1484,267.968,9.1996e-05,1.176e-05,0.0,0 STARLINK-4084,1 52657U 22053B   23108.43440512  .00001176  00000-0  91996-4 0  9997,2 52657  53.2147 215.8348 0001499  92.1484 267.9680 15.08836333 51959,6917.892,95.438,540.794,538.72,0.0
52657.0,STARLINK-4084,PAYLOAD,2023-04-18 13:36:18,15.08843794,0.0001383,53.2159,215.2396,96.9035,263.2115,6.2481e-05,7.07e-06,0.0,0 STARLINK-4084,1 52657U 22053B   23108.56688195  .00000707  00000-0  62481-4 0  9998,2 52657  53.2159 215.2396 0001383  96.9035 263.2115 15.08843794 51978,6917.869,95.437,540.691,538.777,0.0
52657.0,STARLINK-4084,PAYLOAD,2023-04-18 16:47:04,15.08847434,0.0001499,53.2164,214.6458,91.2248,268.8916,0.00028506,4.253e-05,0.0,0 STARLINK-4084,1 52657U 22053B   23108.69936130  .00004253  00000-0  28506-3 0  9996,2 52657  53.2164 214.6458 0001499  91.2248 268.8916 15.08847434 51995,6917.858,95.437,540.76,538.686,0.0
52657.0,STARLINK-4084,PAYLOAD,2023-04-19 16:37:52,15.0884883,0.0001493,53.217,210.1843,87.9263,272.19,0.00032431,4.878e-05,0.0,0 STARLINK-4084,1 52657U 22053B   23109.69296472  .00004878  00000-0  32431-3 0  9990,2 52657  53.2170 210.1843 0001493  87.9263 272.1900 15.08848830 52144,6917.853,95.437,540.751,538.686,0.0
52657.0,STARLINK-4084,PAYLOAD,2023-04-20 10:07:07,15.08839914,0.0001469,53.2156,206.9161,82.7617,277.3542,0.00014933,2.089e-05,0.0,0 STARLINK-4084,1 52657U 22053B   23110.42161014  .00002089  00000-0  14933-3 0  9995,2 52657  53.2156 206.9161 0001469  82.7617 277.3542 15.08839914 52257,6917.881,95.438,540.762,538.729,0.0
52657.0,STARLINK-4084,PAYLOAD,2023-04-20 16:28:39,15.08851899,0.0001391,53.2153,205.726,76.7869,283.3279,0.00041495,6.324e-05,0.0,0 STARLINK-4084,1 52657U 22053B   23110.68656590  .00006324  00000-0  41495-3 0  9990,2 52657  53.2153 205.7260 0001391  76.7869 283.3279 15.08851899 52291,6917.844,95.437,540.671,538.747,0.0
52657.0,STARLINK-4084,PAYLOAD,2023-04-20 22:50:12,15.08832475,0.000108,53.2155,204.5383,123.5804,236.5291,2.8582e-05,1.67e-06,0.0,0 STARLINK-4084,1 52657U 22053B   23110.95153000  .00000167  00000-0  28582-4 0  9990,2 52657  53.2155 204.5383 0001080 123.5804 236.5291 15.08832475 52339,6917.903,95.438,540.516,539.021,0.0
52657.0,STARLINK-4084,PAYLOAD,2023-04-21 13:08:40,15.0884366,9.68e-05,53.2149,201.8581,86.4495,273.6608,0.00010069,1.315e-05,0.0,0 STARLINK-4084,1 52657U 22053B   23111.54768854  .00001315  00000-0  10069-3 0  9991,2 52657  53.2149 201.8581 0000968  86.4495 273.6608 15.08843660 52421,6917.869,95.437,540.404,539.065,0.0
52657.0,STARLINK-4084,PAYLOAD,2023-04-21 14:44:03,15.08844009,0.0001341,53.2158,201.5622,86.2257,273.8888,0.00015071,2.112e-05,0.0,0 STARLINK-4084,1 52657U 22053B   23111.61392956  .00002112  00000-0  15071-3 0  9999,2 52657  53.2158 201.5622 0001341  86.2257 273.8888 15.08844009 52435,6917.868,95.437,540.661,538.805,0.0
52657.0,STARLINK-4084,PAYLOAD,2023-04-21 22:40:59,15.08840772,9.41e-05,53.2149,200.0771,99.6347,260.4751,0.00017799,2.546e-05,0.0,0 STARLINK-4084,1 52657U 22053B   23111.94512825  .00002546  00000-0  17799-3 0  9994,2 52657  53.2149 200.0771 0000941  99.6347 260.4751 15.08840772 52486,6917.878,95.438,540.394,539.092,0.0
52657.0,STARLINK-4084,PAYLOAD,2023-04-22 14:34:50,15.08853047,0.000131,53.2135,197.1034,64.0497,296.063,0.00029451,4.404e-05,0.0,0 STARLINK-4084,1 52657U 22053B   23112.60752484  .00004404  00000-0  29451-3 0  9998,2 52657  53.2135 197.1034 0001310  64.0497 296.0630 15.08853047 52583,6917.841,95.437,540.612,538.799,0.0
52657.0,STARLINK-4084,PAYLOAD,2023-04-23 04:53:19,15.08838844,0.0002015,53.2136,194.4304,56.7031,303.4154,0.00015571,2.191e-05,0.0,0 STARLINK-4084,1 52657U 22053B   23113.20369345  .00002191  00000-0  15571-3 0  9994,2 52657  53.2136 194.4304 0002015  56.7031 303.4154 15.08838844 52671,6917.884,95.438,541.143,538.355,0.0
52657.0,STARLINK-4084,PAYLOAD,2023-04-23 17:36:24,15.08838694,0.0001431,53.2129,192.0466,76.1819,283.9332,6.6506e-05,7.71e-06,0.0,0 STARLINK-4084,1 52657U 22053B   23113.73361271  .00000771  00000-0  66506-4 0  9999,2 52657  53.2129 192.0466 0001431  76.1819 283.9332 15.08838694 52759,6917.884,95.438,540.739,538.759,0.0
52657.0,STARLINK-4084,PAYLOAD,2023-04-25 12:31:48,15.08798954,0.0001896,53.2147,184.0128,130.574,229.5417,-0.00077207,-0.00012541,0.0,0 STARLINK-4084,1 52657U 22053B   23115.52208904 -.00012541  00000-0 -77207-3 0  9990,2 52657  53.2147 184.0128 0001896 130.5740 229.5417 15.08798954 53023,6918.006,95.44,541.183,538.559,0.0
52657.0,STARLINK-4084,PAYLOAD,2023-04-26 10:47:15,15.08806802,0.0001613,53.2169,179.857,69.1017,291.0148,0.00069832,0.00010833,0.0,0 STARLINK-4084,1 52657U 22053B   23116.44948260  .00010833  00000-0  69832-3 0  9993,2 52657  53.2169 179.8570 0001613  69.1017 291.0148 15.08806802 53163,6917.982,95.44,540.963,538.731,0.0
52657.0,STARLINK-4084,PAYLOAD,2023-04-26 15:33:24,15.08824056,0.0001593,53.2145,178.9594,112.0764,248.0398,0.00093974,0.00014693,0.0,0 STARLINK-4084,1 52657U 22053B   23116.64819893  .00014693  00000-0  93974-3 0  9996,2 52657  53.2145 178.9594 0001593 112.0764 248.0398 15.08824056 53190,6917.929,95.439,540.896,538.692,0.0
52657.0,STARLINK-4084,PAYLOAD,2023-04-27 09:02:38,15.08872595,0.0001552,53.2148,175.6884,110.0101,250.1058,0.0014643,0.00023114,0.0,0 STARLINK-4084,1 52657U 22053B   23117.37683102  .00023114  00000-0  14643-2 0  9992,2 52657  53.2148 175.6884 0001552 110.0101 250.1058 15.08872595 53308,6917.781,95.435,540.719,538.572,0.0
52657.0,STARLINK-4084,PAYLOAD,2023-04-28 04:07:14,15.08881775,0.0001381,53.2153,172.121,108.9214,251.1928,0.0015454,0.00024421,0.0,0 STARLINK-4084,1 52657U 22053B   23118.17169967  .00024421  00000-0  15454-2 0  9992,2 52657  53.2153 172.1210 0001381 108.9214 251.1928 15.08881775 53420,6917.753,95.435,540.573,538.662,0.0
52657.0,STARLINK-4084,PAYLOAD,2023-04-28 10:28:47,15.08863759,0.0001425,53.215,170.9317,96.607,263.5084,0.0013309,0.00020971,0.0,0 STARLINK-4084,1 52657U 22053B   23118.43665665  .00020971  00000-0  13309-2 0  9990,2 52657  53.2150 170.9317 0001425  96.6070 263.5084 15.08863759 53469,6917.808,95.436,540.659,538.687,0.0
52657.0,STARLINK-4084,PAYLOAD,2023-04-28 20:01:05,15.08849038,0.0001008,53.2147,169.1501,110.5558,249.5543,-0.0004305,-7.134e-05,0.0,0 STARLINK-4084,1 52657U 22053B   23118.83409298 -.00007134  00000-0 -43050-3 0  9997,2 52657  53.2147 169.1501 0001008 110.5558 249.5543 15.08849038 53529,6917.853,95.437,540.415,539.02,0.0
